import pytest

HORIZONS_CSV_FIXTURE = """
*******************************************************************************
Ephemeris / WWW_USER Thu Apr  2 13:00:00 2026 Pasadena, USA
*******************************************************************************
Target body name: Artemis II (spacecraft) (-1024)
Center body name: Earth (399)
*******************************************************************************
$$SOE
2461133.052083333, A.D. 2026-Apr-02 13:15:00.0000, -1.359633287842628E+04, -6.586347358689297E+04, -3.557374039864614E+04,  9.392825709819910E-01,  5.248620935585149E-02,  3.428539963806906E-02,
2461133.055555556, A.D. 2026-Apr-02 13:20:00.0000, -1.331399807222364E+04, -6.584504255378828E+04, -3.556200448348602E+04,  9.429383959967229E-01,  7.039491664237639E-02,  4.395804390631705E-02,
$$EOE
*******************************************************************************
"""

TELEMETRY_FIXTURE = {
    "File": {
        "Date": "2026/04/02 07:11:12",
        "Activity": "MIS",
        "Type": 4
    },
    "Parameter_2003": {
        "Number": "2003",
        "Length": "8",
        "Status": "Good",
        "Time": "2026:092:12:11:11.203",
        "Type": "2",
        "Value": "-44627650.62892"
    },
    "Parameter_2004": {
        "Number": "2004",
        "Length": "8",
        "Status": "Good",
        "Time": "2026:092:12:11:11.203",
        "Type": "2",
        "Value": "-216067860.3622"
    },
    "Parameter_2005": {
        "Number": "2005",
        "Length": "8",
        "Status": "Good",
        "Time": "2026:092:12:11:11.203",
        "Type": "2",
        "Value": "-116687911.8069"
    },
    "Parameter_2009": {
        "Number": "2009",
        "Length": "8",
        "Status": "Good",
        "Time": "2026:092:12:11:11.203",
        "Type": "2",
        "Value": "3080"
    },
    "Parameter_2010": {
        "Number": "2010",
        "Length": "8",
        "Status": "Good",
        "Time": "2026:092:12:11:11.203",
        "Type": "2",
        "Value": "167"
    },
    "Parameter_2011": {
        "Number": "2011",
        "Length": "8",
        "Status": "Good",
        "Time": "2026:092:12:11:11.203",
        "Type": "2",
        "Value": "109.3"
    },
    "Parameter_5001": {
        "Number": "5001",
        "Length": "8",
        "Status": "Good",
        "Time": "2026:092:12:11:09.539",
        "Type": "2",
        "Value": "48958.44818196"
    },
    "Parameter_9999": {
        "Number": "9999",
        "Length": "8",
        "Status": "Bad",
        "Time": "2026:092:12:11:11.203",
        "Type": "2",
        "Value": "0"
    }
}
